{
  "type": "FeatureCollection",
  "features": [
    {
      "type": "Feature",
      "properties": {
        "norad_id": 66559,
        "name": "STARLINK-35419",
        "group": "last-30-days",
        "lat": 26.60596448090856,
        "lon": -78.93365269161659,
        "alt_km": 411.82034341092003,
        "timestamp": "2025-12-10T14:53:35.946680+00:00",
        "meta_object_name": "STARLINK-35419",
        "meta_object_id": "2025-268C",
        "meta_epoch": "2025-12-10T06:00:02.000160",
        "meta_mean_motion": 15.50627383,
        "meta_eccentricity": 0.00018748,
        "meta_inclination": 43.0003,
        "meta_ra_of_asc_node": 135.7492,
        "meta_arg_of_pericenter": 268.6164,
        "meta_mean_anomaly": 319.4531,
        "meta_ephemeris_type": 0,
        "meta_classification_type": "U",
        "meta_norad_cat_id": 66559,
        "meta_element_set_no": 999,
        "meta_rev_at_epoch": 426,
        "meta_bstar": -0.0022108168,
        "meta_mean_motion_dot": -0.00128166,
        "meta_mean_motion_ddot": 0,
        "tle_line1": "1 66559U 25268C   25344.25002315 -.00128166  00000+0 -22108-2 0  9990",
        "tle_line2": "2 66559  43.0003 135.7492 0001874 268.6164 319.4531 15.50627383  4265"
      },
      "geometry": {
        "type": "Point",
        "coordinates": [
          -78.93365269161659,
          26.60596448090856
        ]
      }
    },
    {
      "type": "Feature",
      "properties": {
        "norad_id": 66560,
        "name": "STARLINK-35411",
        "group": "last-30-days",
        "lat": 25.492069089525838,
        "lon": -77.19848143194885,
        "alt_km": 412.03903575658387,
        "timestamp": "2025-12-10T14:53:35.946689+00:00",
        "meta_object_name": "STARLINK-35411",
        "meta_object_id": "2025-268D",
        "meta_epoch": "2025-12-10T06:00:02.000160",
        "meta_mean_motion": 15.50561036,
        "meta_eccentricity": 0.00018568,
        "meta_inclination": 43.0003,
        "meta_ra_of_asc_node": 135.7445,
        "meta_arg_of_pericenter": 272.8675,
        "meta_mean_anomaly": 317.1673,
        "meta_ephemeris_type": 0,
        "meta_classification_type": "U",
        "meta_norad_cat_id": 66560,
        "meta_element_set_no": 999,
        "meta_rev_at_epoch": 426,
        "meta_bstar": -0.00083430289,
        "meta_mean_motion_dot": -0.00048952,
        "meta_mean_motion_ddot": 0,
        "tle_line1": "1 66560U 25268D   25344.25002315 -.00048952  00000+0 -83430-3 0  9992",
        "tle_line2": "2 66560  43.0003 135.7445 0001856 272.8675 317.1673 15.50561036  4263"
      },
      "geometry": {
        "type": "Point",
        "coordinates": [
          -77.19848143194885,
          25.492069089525838
        ]
      }
    },
    {
      "type": "Feature",
      "properties": {
        "norad_id": 66561,
        "name": "STARLINK-35305",
        "group": "last-30-days",
        "lat": 23.204662767139514,
        "lon": -73.82287671849045,
        "alt_km": 412.2579921841125,
        "timestamp": "2025-12-10T14:53:35.946699+00:00",
        "meta_object_name": "STARLINK-35305",
        "meta_object_id": "2025-268E",
        "meta_epoch": "2025-12-10T06:00:02.000160",
        "meta_mean_motion": 15.5063599,
        "meta_eccentricity": 0.00017763,
        "meta_inclination": 43.0003,
        "meta_ra_of_asc_node": 135.735,
        "meta_arg_of_pericenter": 269.7479,
        "meta_mean_anomaly": 324.0709,
        "meta_ephemeris_type": 0,
        "meta_classification_type": "U",
        "meta_norad_cat_id": 66561,
        "meta_element_set_no": 999,
        "meta_rev_at_epoch": 421,
        "meta_bstar": -0.0024619289,
        "meta_mean_motion_dot": -0.00142469,
        "meta_mean_motion_ddot": 0,
        "tle_line1": "1 66561U 25268E   25344.25002315 -.00142469  00000+0 -24619-2 0  9994",
        "tle_line2": "2 66561  43.0003 135.7350 0001776 269.7479 324.0709 15.50635990  4210"
      },
      "geometry": {
        "type": "Point",
        "coordinates": [
          -73.82287671849045,
          23.204662767139514
        ]
      }
    },
    {
      "type": "Feature",
      "properties": {
        "norad_id": 66562,
        "name": "STARLINK-35579",
        "group": "last-30-days",
        "lat": 24.358375305050707,
        "lon": -75.49675082350286,
        "alt_km": 412.15001364992804,
        "timestamp": "2025-12-10T14:53:35.946708+00:00",
        "meta_object_name": "STARLINK-35579",
        "meta_object_id": "2025-268F",
        "meta_epoch": "2025-12-10T06:00:02.000160",
        "meta_mean_motion": 15.50561964,
        "meta_eccentricity": 0.00017969,
        "meta_inclination": 43.0005,
        "meta_ra_of_asc_node": 135.739,
        "meta_arg_of_pericenter": 271.8331,
        "meta_mean_anomaly": 320.1189,
        "meta_ephemeris_type": 0,
        "meta_classification_type": "U",
        "meta_norad_cat_id": 66562,
        "meta_element_set_no": 999,
        "meta_rev_at_epoch": 426,
        "meta_bstar": -0.00087364948,
        "meta_mean_motion_dot": -0.00051231,
        "meta_mean_motion_ddot": 0,
        "tle_line1": "1 66562U 25268F   25344.25002315 -.00051231  00000+0 -87365-3 0  9999",
        "tle_line2": "2 66562  43.0005 135.7390 0001796 271.8331 320.1189 15.50561964  4263"
      },
      "geometry": {
        "type": "Point",
        "coordinates": [
          -75.49675082350286,
          24.358375305050707
        ]
      }
    },
    {
      "type": "Feature",
      "properties": {
        "norad_id": 66563,
        "name": "STARLINK-35437",
        "group": "last-30-days",
        "lat": 22.036211994030847,
        "lon": -72.18247564830382,
        "alt_km": 412.4604198475254,
        "timestamp": "2025-12-10T14:53:35.946717+00:00",
        "meta_object_name": "STARLINK-35437",
        "meta_object_id": "2025-268G",
        "meta_epoch": "2025-12-10T06:00:02.000160",
        "meta_mean_motion": 15.5055863,
        "meta_eccentricity": 0.00017729,
        "meta_inclination": 43.0004,
        "meta_ra_of_asc_node": 135.7297,
        "meta_arg_of_pericenter": 272.7381,
        "meta_mean_anomaly": 323.0491,
        "meta_ephemeris_type": 0,
        "meta_classification_type": "U",
        "meta_norad_cat_id": 66563,
        "meta_element_set_no": 999,
        "meta_rev_at_epoch": 426,
        "meta_bstar": -0.00076320454,
        "meta_mean_motion_dot": -0.00044828,
        "meta_mean_motion_ddot": 0,
        "tle_line1": "1 66563U 25268G   25344.25002315 -.00044828  00000+0 -76320-3 0  9993",
        "tle_line2": "2 66563  43.0004 135.7297 0001772 272.7381 323.0491 15.50558630  4262"
      },
      "geometry": {
        "type": "Point",
        "coordinates": [
          -72.18247564830382,
          22.036211994030847
        ]
      }
    },
    {
      "type": "Feature",
      "properties": {
        "norad_id": 66564,
        "name": "STARLINK-35358",
        "group": "last-30-days",
        "lat": 20.851508534465474,
        "lon": -70.56901770121506,
        "alt_km": 412.6063909382365,
        "timestamp": "2025-12-10T14:53:35.946727+00:00",
        "meta_object_name": "STARLINK-35358",
        "meta_object_id": "2025-268H",
        "meta_epoch": "2025-12-10T06:00:02.000160",
        "meta_mean_motion": 15.50612195,
        "meta_eccentricity": 0.00018544,
        "meta_inclination": 43.0003,
        "meta_ra_of_asc_node": 135.7249,
        "meta_arg_of_pericenter": 271.4505,
        "meta_mean_anomaly": 326.2105,
        "meta_ephemeris_type": 0,
        "meta_classification_type": "U",
        "meta_norad_cat_id": 66564,
        "meta_element_set_no": 999,
        "meta_rev_at_epoch": 421,
        "meta_bstar": -0.0017689691,
        "meta_mean_motion_dot": -0.00102892,
        "meta_mean_motion_ddot": 0,
        "tle_line1": "1 66564U 25268H   25344.25002315 -.00102892  00000+0 -17690-2 0  9994",
        "tle_line2": "2 66564  43.0003 135.7249 0001854 271.4505 326.2105 15.50612195  4213"
      },
      "geometry": {
        "type": "Point",
        "coordinates": [
          -70.56901770121506,
          20.851508534465474
        ]
      }
    },
    {
      "type": "Feature",
      "properties": {
        "norad_id": 66565,
        "name": "STARLINK-35893",
        "group": "last-30-days",
        "lat": 19.650507886902705,
        "lon": -68.97881107080751,
        "alt_km": 412.83395866235423,
        "timestamp": "2025-12-10T14:53:35.946736+00:00",
        "meta_object_name": "STARLINK-35893",
        "meta_object_id": "2025-268J",
        "meta_epoch": "2025-12-10T06:00:02.000160",
        "meta_mean_motion": 15.50597048,
        "meta_eccentricity": 0.00018688,
        "meta_inclination": 43.0004,
        "meta_ra_of_asc_node": 135.7202,
        "meta_arg_of_pericenter": 270.644,
        "meta_mean_anomaly": 328.9631,
        "meta_ephemeris_type": 0,
        "meta_classification_type": "U",
        "meta_norad_cat_id": 66565,
        "meta_element_set_no": 999,
        "meta_rev_at_epoch": 426,
        "meta_bstar": -0.0020483201,
        "meta_mean_motion_dot": -0.00118783,
        "meta_mean_motion_ddot": 0,
        "tle_line1": "1 66565U 25268J   25344.25002315 -.00118783  00000+0 -20483-2 0  9995",
        "tle_line2": "2 66565  43.0004 135.7202 0001868 270.6440 328.9631 15.50597048  4265"
      },
      "geometry": {
        "type": "Point",
        "coordinates": [
          -68.97881107080751,
          19.650507886902705
        ]
      }
    }
  ]
}